{"type": "FeatureCollection", "features": [ {"type": "Feature", "properties": {"norad_id": 31615, "name": "FENGYUN 1C DEB", "group": "fengyun-1c-debris", "lat": -23.694591575838274, "lon": 49.07118117866286, "alt_km": 684.9664634493984, "timestamp": "2025-12-19T04:59:48.589394+00:00", "meta": {"OBJECT_NAME": "FENGYUN 1C DEB", "OBJECT_ID": "1999-025BZV", "EPOCH": "2025-12-18T09:01:53.872608", "MEAN_MOTION": 14.35447371, "ECCENTRICITY": 0.01662951, "INCLINATION": 99.1382, "RA_OF_ASC_NODE": 44.1395, "ARG_OF_PERICENTER": 300.1486, "MEAN_ANOMALY": 58.3309, "EPHEMERIS_TYPE": 0, "CLASSIFICATION_TYPE": "U", "NORAD_CAT_ID": 31615, "ELEMENT_SET_NO": 999, "REV_AT_EPOCH": 65359, "BSTAR": 0.0026534563, "MEAN_MOTION_DOT": 8.876e-05, "MEAN_MOTION_DDOT": 0}, "tle": {"line1": "1 31615U 99025BZV 25352.37631797  .00008876  00000+0  26535-2 0  9992", "line2": "2 31615  99.1382  44.1395 0166295 300.1486  58.3309 14.35447371653592"}}, "geometry": {"type": "Point", "coordinates": [49.07118117866286, -23.694591575838274]}}, {"type": "Feature", "properties": {"norad_id": 31618, "name": "FENGYUN 1C DEB", "group": "fengyun-1c-debris", "lat": 65.23460305098385, "lon": 115.43844587473531, "alt_km": 869.3867296102235, "timestamp": "2025-12-19T04:59:48.589404+00:00", "meta": {"OBJECT_NAME": "FENGYUN 1C DEB", "OBJECT_ID": "1999-025BZY", "EPOCH": "2025-12-18T15:09:53.301888", "MEAN_MOTION": 14.21028975, "ECCENTRICITY": 0.01569221, "INCLINATION": 99.4434, "RA_OF_ASC_NODE": 135.9699, "ARG_OF_PERICENTER": 309.3748, "MEAN_ANOMALY": 49.3614, "EPHEMERIS_TYPE": 0, "CLASSIFICATION_TYPE": "U", "NORAD_CAT_ID": 31618, "ELEMENT_SET_NO": 999, "REV_AT_EPOCH": 70348, "BSTAR": 0.00025004223, "MEAN_MOTION_DOT": 5.62e-06, "MEAN_MOTION_DDOT": 0}, "tle": {"line1": "1 31618U 99025BZY 25352.63186692  .00000562  00000+0  25004-3 0  9998", "line2": "2 31618  99.4434 135.9699 0156922 309.3748  49.3614 14.21028975703483"}}, "geometry": {"type": "Point", "coordinates": [115.43844587473531, 65.23460305098385]}}, {"type": "Feature", "properties": {"norad_id": 31619, "name": "FENGYUN 1C DEB", "group": "fengyun-1c-debris", "lat": 69.85145218055489, "lon": 160.8620329351391, "alt_km": 664.5775895469596, "timestamp": "2025-12-19T04:59:48.589414+00:00", "meta": {"OBJECT_NAME": "FENGYUN 1C DEB", "OBJECT_ID": "1999-025BZZ", "EPOCH": "2025-12-17T23:34:56.000640", "MEAN_MOTION": 14.85928466, "ECCENTRICITY": 0.00947023, "INCLINATION": 99.0713, "RA_OF_ASC_NODE": 185.2794, "ARG_OF_PERICENTER": 278.4468, "MEAN_ANOMALY": 80.6018, "EPHEMERIS_TYPE": 0, "CLASSIFICATION_TYPE": "U", "NORAD_CAT_ID": 31619, "ELEMENT_SET_NO": 999, "REV_AT_EPOCH": 63566, "BSTAR": 0.0035881114, "MEAN_MOTION_DOT": 0.00034026, "MEAN_MOTION_DDOT": 0}, "tle": {"line1": "1 31619U 99025BZZ 25351.98259260  .00034026  00000+0  35881-2 0  9993", "line2": "2 31619  99.0713 185.2794 0094702 278.4468  80.6018 14.85928466635660"}}, "geometry": {"type": "Point", "coordinates": [160.8620329351391, 69.85145218055489]}}, {"type": "Feature", "properties": {"norad_id": 31620, "name": "FENGYUN 1C DEB", "group": "fengyun-1c-debris", "lat": 3.3273442502540638, "lon": 76.98315867479904, "alt_km": 756.6333078189091, "timestamp": "2025-12-19T04:59:48.589424+00:00", "meta": {"OBJECT_NAME": "FENGYUN 1C DEB", "OBJECT_ID": "1999-025CAA", "EPOCH": "2025-12-18T12:16:26.023584", "MEAN_MOTION": 14.37303737, "ECCENTRICITY": 0.00195289, "INCLINATION": 98.8873, "RA_OF_ASC_NODE": 76.7848, "ARG_OF_PERICENTER": 23.9081, "MEAN_ANOMALY": 336.3007, "EPHEMERIS_TYPE": 0, "CLASSIFICATION_TYPE": "U", "NORAD_CAT_ID": 31620, "ELEMENT_SET_NO": 999, "REV_AT_EPOCH": 65927, "BSTAR": 0.0019950798, "MEAN_MOTION_DOT": 5.921e-05, "MEAN_MOTION_DDOT": 0}, "tle": {"line1": "1 31620U 99025CAA 25352.51141231  .00005921  00000+0  19951-2 0  9995", "line2": "2 31620  98.8873  76.7848 0019528  23.9081 336.3007 14.37303737659274"}}, "geometry": {"type": "Point", "coordinates": [76.98315867479904, 3.3273442502540638]}}, {"type": "Feature", "properties": {"norad_id": 31622, "name": "FENGYUN 1C DEB", "group": "fengyun-1c-debris", "lat": -12.746467093241803, "lon": 90.15237626699346, "alt_km": 762.255674626058, "timestamp": "2025-12-19T04:59:48.589434+00:00", "meta": {"OBJECT_NAME": "FENGYUN 1C DEB", "OBJECT_ID": "1999-025CAC", "EPOCH": "2025-12-18T18:03:56.113056", "MEAN_MOTION": 14.372429, "ECCENTRICITY": 0.00152057, "INCLINATION": 98.8164, "RA_OF_ASC_NODE": 87.6738, "ARG_OF_PERICENTER": 322.7946, "MEAN_ANOMALY": 189.0606, "EPHEMERIS_TYPE": 0, "CLASSIFICATION_TYPE": "U", "NORAD_CAT_ID": 31622, "ELEMENT_SET_NO": 999, "REV_AT_EPOCH": 95858, "BSTAR": 0.001405287, "MEAN_MOTION_DOT": 4.147e-05, "MEAN_MOTION_DDOT": 0}, "tle": {"line1": "1 31622U 99025CAC 25352.75273279  .00004147  00000+0  14053-2 0  9998", "line2": "2 31622  98.8164  87.6738 0015205 322.7946 189.0606 14.37242900958584"}}, "geometry": {"type": "Point", "coordinates": [90.15237626699346, -12.746467093241803]}}, {"type": "Feature", "properties": {"norad_id": 31623, "name": "FENGYUN 1C DEB", "group": "fengyun-1c-debris", "lat": 81.90240155606418, "lon": 93.988084981052, "alt_km": 980.621089455145, "timestamp": "2025-12-19T04:59:48.589444+00:00", "meta": {"OBJECT_NAME": "FENGYUN 1C DEB", "OBJECT_ID": "1999-025CAD", "EPOCH": "2025-12-02T20:02:22.350624", "MEAN_MOTION": 13.82580933, "ECCENTRICITY": 0.01951152, "INCLINATION": 97.6304, "RA_OF_ASC_NODE": 190.283, "ARG_OF_PERICENTER": 33.7651, "MEAN_ANOMALY": 327.5758, "EPHEMERIS_TYPE": 0, "CLASSIFICATION_TYPE": "U", "NORAD_CAT_ID": 31623, "ELEMENT_SET_NO": 999, "REV_AT_EPOCH": 57783, "BSTAR": 0.00047153491, "MEAN_MOTION_DOT": 5.61e-06, "MEAN_MOTION_DDOT": 0}, "tle": {"line1": "1 31623U 99025CAD 25336.83498091  .00000561  00000+0  47153-3 0  9995", "line2": "2 31623  97.6304 190.2830 0195115  33.7651 327.5758 13.82580933577835"}}, "geometry": {"type": "Point", "coordinates": [93.988084981052, 81.90240155606418]}}, {"type": "Feature", "properties": {"norad_id": 31625, "name": "FENGYUN 1C DEB", "group": "fengyun-1c-debris", "lat": 30.819792053376904, "lon": 74.27751682638312, "alt_km": 619.6074613480732, "timestamp": "2025-12-19T04:59:48.589455+00:00", "meta": {"OBJECT_NAME": "FENGYUN 1C DEB", "OBJECT_ID": "1999-025CAF", "EPOCH": "2025-12-18T17:59:55.171968", "MEAN_MOTION": 14.55407543, "ECCENTRICITY": 0.0148944, "INCLINATION": 98.8059, "RA_OF_ASC_NODE": 79.1008, "ARG_OF_PERICENTER": 357.4885, "MEAN_ANOMALY": 153.2333, "EPHEMERIS_TYPE": 0, "CLASSIFICATION_TYPE": "U", "NORAD_CAT_ID": 31625, "ELEMENT_SET_NO": 999, "REV_AT_EPOCH": 98480, "BSTAR": 0.00011221206, "MEAN_MOTION_DOT": 5.05e-06, "MEAN_MOTION_DDOT": 0}, "tle": {"line1": "1 31625U 99025CAF 25352.74994412  .00000505  00000+0  11221-3 0  9998", "line2": "2 31625  98.8059  79.1008 0148944 357.4885 153.2333 14.55407543984800"}}, "geometry": {"type": "Point", "coordinates": [74.27751682638312, 30.819792053376904]}}, {"type": "Feature", "properties": {"norad_id": 31627, "name": "FENGYUN 1C DEB", "group": "fengyun-1c-debris", "lat": 18.00341747050277, "lon": -136.1944396521651, "alt_km": 740.7180035086112, "timestamp": "2025-12-19T04:59:48.589465+00:00", "meta": {"OBJECT_NAME": "FENGYUN 1C DEB", "OBJECT_ID": "1999-025CAH", "EPOCH": "2025-11-26T09:13:22.975680", "MEAN_MOTION": 14.35408996, "ECCENTRICITY": 0.00515931, "INCLINATION": 98.5313, "RA_OF_ASC_NODE": 18.4415, "ARG_OF_PERICENTER": 201.9005, "MEAN_ANOMALY": 157.9975, "EPHEMERIS_TYPE": 0, "CLASSIFICATION_TYPE": "U", "NORAD_CAT_ID": 31627, "ELEMENT_SET_NO": 999, "REV_AT_EPOCH": 64532, "BSTAR": 0.0013473839, "MEAN_MOTION_DOT": 3.885e-05, "MEAN_MOTION_DDOT": 0}, "tle": {"line1": "1 31627U 99025CAH 25330.38429370  .00003885  00000+0  13474-2 0  9997", "line2": "2 31627  98.5313  18.4415 0051593 201.9005 157.9975 14.35408996645325"}}, "geometry": {"type": "Point", "coordinates": [-136.1944396521651, 18.00341747050277]}}, {"type": "Feature", "properties": {"norad_id": 31628, "name": "FENGYUN 1C DEB", "group": "fengyun-1c-debris", "lat": 69.10053563374751, "lon": 175.28921472507477, "alt_km": 1013.5348907959724, "timestamp": "2025-12-19T04:59:48.589475+00:00", "meta": {"OBJECT_NAME": "FENGYUN 1C DEB", "OBJECT_ID": "1999-025CAJ", "EPOCH": "2025-12-18T07:51:32.254560", "MEAN_MOTION": 13.86860771, "ECCENTRICITY": 0.01681262, "INCLINATION": 102.2709, "RA_OF_ASC_NODE": 208.8841, "ARG_OF_PERICENTER": 206.8364, "MEAN_ANOMALY": 152.4008, "EPHEMERIS_TYPE": 0, "CLASSIFICATION_TYPE": "U", "NORAD_CAT_ID": 31628, "ELEMENT_SET_NO": 999, "REV_AT_EPOCH": 93377, "BSTAR": 0.0017535761, "MEAN_MOTION_DOT": 2.221e-05, "MEAN_MOTION_DDOT": 0}, "tle": {"line1": "1 31628U 99025CAJ 25352.32745665  .00002221  00000+0  17536-2 0  9990", "line2": "2 31628 102.2709 208.8841 0168126 206.8364 152.4008 13.86860771933773"}}, "geometry": {"type": "Point", "coordinates": [175.28921472507477, 69.10053563374751]}}, {"type": "Feature", "properties": {"norad_id": 31629, "name": "FENGYUN 1C DEB", "group": "fengyun-1c-debris", "lat": -66.74835527534584, "lon": -168.61468370498855, "alt_km": 888.2472522392727, "timestamp": "2025-12-19T04:59:48.589485+00:00", "meta": {"OBJECT_NAME": "FENGYUN 1C DEB", "OBJECT_ID": "1999-025CAK", "EPOCH": "2025-12-17T09:22:54.161760", "MEAN_MOTION": 14.14662382, "ECCENTRICITY": 0.01036677, "INCLINATION": 102.1337, "RA_OF_ASC_NODE": 38.97, "ARG_OF_PERICENTER": 15.3289, "MEAN_ANOMALY": 345.0973, "EPHEMERIS_TYPE": 0, "CLASSIFICATION_TYPE": "U", "NORAD_CAT_ID": 31629, "ELEMENT_SET_NO": 999, "REV_AT_EPOCH": 94512, "BSTAR": 0.0017444885, "MEAN_MOTION_DOT": 3.464e-05, "MEAN_MOTION_DDOT": 0}, "tle": {"line1": "1 31629U 99025CAK 25351.39090465  .00003464  00000+0  17445-2 0  9997", "line2": "2 31629 102.1337  38.9700 0103667  15.3289 345.0973 14.14662382945127"}}, "geometry": {"type": "Point", "coordinates": [-168.61468370498855, -66.74835527534584]}}]}